NORAD_CAT_ID,OBJECT_NAME,OBJECT_TYPE,EPOCH,MEAN_MOTION,ECCENTRICITY,INCLINATION,RA_OF_ASC_NODE,ARG_OF_PERICENTER,MEAN_ANOMALY,BSTAR,MEAN_MOTION_DOT,MEAN_MOTION_DDOT,TLE_LINE0,TLE_LINE1,TLE_LINE2,SEMIMAJOR_AXIS,PERIOD,APOGEE,PERIGEE,DECAYED
52562.0,STARLINK-3957,PAYLOAD,2023-11-20 04:29:22,15.08843791,0.0001505,53.2172,292.285,108.9816,251.1339,-2.8555e-06,-3.33e-06,0.0,0 STARLINK-3957,1 52562U 22051AF  23324.18706932 -.00000333  00000-0 -28555-5 0  9991,2 52562  53.2172 292.2850 0001505 108.9816 251.1339 15.08843791 84769,6917.869,95.437,540.775,538.693,0.0
52562.0,STARLINK-3957,PAYLOAD,2023-11-20 15:37:04,15.08847403,0.0001375,53.2175,290.203,99.8701,260.2446,4.9746e-05,5.04e-06,0.0,0 STARLINK-3957,1 52562U 22051AF  23324.65074487  .00000504  00000-0  49746-4 0  9998,2 52562  53.2175 290.2030 0001375  99.8701 260.2446 15.08847403 84760,6917.858,95.437,540.674,538.772,0.0
52562.0,STARLINK-3957,PAYLOAD,2023-11-21 04:20:08,15.08860279,0.0001422,53.2178,287.8228,99.9563,260.159,0.00017568,2.511e-05,0.0,0 STARLINK-3957,1 52562U 22051AF  23325.18065013  .00002511  00000-0  17568-3 0  9998,2 52562  53.2178 287.8228 0001422  99.9563 260.1590 15.08860279 84916,6917.818,95.436,540.667,538.7,0.0
52562.0,STARLINK-3957,PAYLOAD,2023-11-21 07:30:54,15.08865251,0.0001515,53.2179,287.2277,100.6297,259.4866,0.00022697,3.329e-05,0.0,0 STARLINK-3957,1 52562U 22051AF  23325.31312581  .00003329  00000-0  22697-3 0  9995,2 52562  53.2179 287.2277 0001515 100.6297 259.4866 15.08865251 84868,6917.803,95.436,540.716,538.62,0.0
52562.0,STARLINK-3957,PAYLOAD,2023-11-22 02:35:33,15.08838471,0.0001489,53.2168,283.6601,113.5043,246.6106,0.00043411,6.627e-05,0.0,0 STARLINK-3957,1 52562U 22051AF  23326.10802690  .00006627  00000-0  43411-3 0  9999,2 52562  53.2168 283.6601 0001489 113.5043 246.6106 15.08838471 85050,6917.885,95.438,540.78,538.72,0.0
52562.0,STARLINK-3957,PAYLOAD,2023-11-22 04:10:56,15.08841015,0.0001467,53.2172,283.3635,103.6083,256.5072,0.00046878,7.181e-05,0.0,0 STARLINK-3957,1 52562U 22051AF  23326.17426654  .00007181  00000-0  46878-3 0  9994,2 52562  53.2172 283.3635 0001467 103.6083 256.5072 15.08841015 84991,6917.877,95.437,540.757,538.727,0.0
52562.0,STARLINK-3957,PAYLOAD,2023-11-23 04:01:42,15.08857523,0.0001536,53.2171,278.9016,105.9044,254.2118,-1.0685e-05,-4.58e-06,0.0,0 STARLINK-3957,1 52562U 22051AF  23327.16784974 -.00000458  00000-0 -10685-4 0  9996,2 52562  53.2171 278.9016 0001536 105.9044 254.2118 15.08857523 85215,6917.827,95.436,540.754,538.629,0.0
52562.0,STARLINK-3957,PAYLOAD,2023-11-23 07:12:28,15.08859501,0.0001545,53.2169,278.3038,107.445,252.6711,3.6516e-05,2.93e-06,0.0,0 STARLINK-3957,1 52562U 22051AF  23327.30032507  .00000293  00000-0  36516-4 0  9996,2 52562  53.2169 278.3038 0001545 107.4450 252.6711 15.08859501 85161,6917.821,95.436,540.755,538.617,0.0
52562.0,STARLINK-3957,PAYLOAD,2023-11-24 02:17:07,15.08831368,0.0001778,53.2178,274.7463,120.8846,239.2321,-0.00010636,-1.98e-05,0.0,0 STARLINK-3957,1 52562U 22051AF  23328.09522416 -.00001980  00000-0 -10636-3 0  9996,2 52562  53.2178 274.7463 0001778 120.8846 239.2321 15.08831368 85359,6917.907,95.438,541.002,538.542,0.0
52562.0,STARLINK-3957,PAYLOAD,2023-11-24 07:03:17,15.08829448,0.000157,53.2172,273.8459,108.3932,251.7231,-9.5558e-05,-1.808e-05,0.0,0 STARLINK-3957,1 52562U 22051AF  23328.29394758 -.00001808  00000-0 -95558-4 0  9990,2 52562  53.2172 273.8459 0001570 108.3932 251.7231 15.08829448 85316,6917.913,95.438,540.864,538.692,0.0
52562.0,STARLINK-3957,PAYLOAD,2023-11-25 03:43:17,15.08851242,0.0001424,53.2165,269.9803,93.1355,266.98,0.00036365,5.506e-05,0.0,0 STARLINK-3957,1 52562U 22051AF  23329.15506109  .00005506  00000-0  36365-3 0  9998,2 52562  53.2165 269.9803 0001424  93.1355 266.9800 15.08851242 85514,6917.846,95.437,540.696,538.726,0.0
52562.0,STARLINK-3957,PAYLOAD,2023-11-25 05:18:40,15.08853565,0.0001422,53.2165,269.6829,96.8018,263.3136,0.00042382,6.466e-05,0.0,0 STARLINK-3957,1 52562U 22051AF  23329.22130031  .00006466  00000-0  42382-3 0  9995,2 52562  53.2165 269.6829 0001422  96.8018 263.3136 15.08853565 85459,6917.839,95.437,540.688,538.72,0.0
52562.0,STARLINK-3957,PAYLOAD,2023-11-26 03:34:03,15.0887444,0.0001678,53.2172,265.5224,69.0211,291.096,0.00076865,0.00011978,0.0,0 STARLINK-3957,1 52562U 22051AF  23330.14865451  .00011978  00000-0  76865-3 0  9996,2 52562  53.2172 265.5224 0001678  69.0211 291.0960 15.08874440 85594,6917.775,95.435,540.801,538.479,0.0
52562.0,STARLINK-3957,PAYLOAD,2023-11-27 01:49:29,15.08826984,0.0001734,53.2176,261.3579,85.4296,274.6894,-0.00029018,-4.902e-05,0.0,0 STARLINK-3957,1 52562U 22051AF  23331.07603278 -.00004902  00000-0 -29018-3 0  9995,2 52562  53.2176 261.3579 0001734  85.4296 274.6894 15.08826984 85800,6917.92,95.438,540.985,538.586,0.0
52562.0,STARLINK-3957,PAYLOAD,2023-11-27 19:18:43,15.08839394,0.0001649,53.2172,258.0906,87.3843,272.7338,-1.5468e-05,-5.34e-06,0.0,0 STARLINK-3957,1 52562U 22051AF  23331.80467293 -.00000534  00000-0 -15468-4 0  9993,2 52562  53.2172 258.0906 0001649  87.3843 272.7338 15.08839394 85910,6917.882,95.438,540.888,538.606,0.0
52562.0,STARLINK-3957,PAYLOAD,2023-11-27 22:29:29,15.08853716,0.0001651,53.2177,257.4947,86.7202,273.3979,0.00027658,4.118e-05,0.0,0 STARLINK-3957,1 52562U 22051AF  23331.93714360  .00004118  00000-0  27658-3 0  9990,2 52562  53.2177 257.4947 0001651  86.7202 273.3979 15.08853716 85864,6917.838,95.437,540.846,538.561,0.0
52562.0,STARLINK-3957,PAYLOAD,2023-11-28 01:40:15,15.08857302,0.0001877,53.2175,256.8972,107.2827,252.837,0.00037151,5.632e-05,0.0,0 STARLINK-3957,1 52562U 22051AF  23332.06962101  .00005632  00000-0  37151-3 0  9994,2 52562  53.2175 256.8972 0001877 107.2827 252.8370 15.08857302 85957,6917.828,95.436,540.991,538.394,0.0
52562.0,STARLINK-3957,PAYLOAD,2023-11-28 04:51:00,15.08885895,0.0001654,53.2176,256.3034,90.5805,269.5377,0.00095632,0.00014984,0.0,0 STARLINK-3957,1 52562U 22051AF  23332.20208877  .00014984  00000-0  95632-3 0  9991,2 52562  53.2176 256.3034 0001654  90.5805 269.5377 15.08885895 85977,6917.74,95.435,540.749,538.461,0.0
52562.0,STARLINK-3957,PAYLOAD,2023-11-28 19:09:30,15.0883872,0.0001855,53.2178,253.6262,105.6244,254.4953,0.00010862,1.441e-05,0.0,0 STARLINK-3957,1 52562U 22051AF  23332.79827170  .00001441  00000-0  10862-3 0  9994,2 52562  53.2178 253.6262 0001855 105.6244 254.4953 15.08838720 86069,6917.884,95.438,541.033,538.466,0.0
52562.0,STARLINK-3957,PAYLOAD,2023-11-29 04:41:49,15.08840448,0.0001555,53.2167,251.84,104.7018,255.4146,0.0001705,2.427e-05,0.0,0 STARLINK-3957,1 52562U 22051AF  23333.19571189  .00002427  00000-0  17050-3 0  9996,2 52562  53.2167 251.8400 0001555 104.7018 255.4146 15.08840448 86051,6917.879,95.438,540.82,538.668,0.0
52562.0,STARLINK-3957,PAYLOAD,2023-11-29 23:46:26,15.08843808,0.0001694,53.2165,248.2714,98.5644,261.554,-1.1309e-05,-4.68e-06,0.0,0 STARLINK-3957,1 52562U 22051AF  23333.99058960 -.00000468  00000-0 -11309-4 0  9998,2 52562  53.2165 248.2714 0001694  98.5644 261.5540 15.08843808 86246,6917.869,95.437,540.906,538.562,0.0
52562.0,STARLINK-3957,PAYLOAD,2023-11-30 23:37:14,15.08835822,0.0001508,53.2161,243.8117,96.2747,263.8417,8.3258e-05,1.037e-05,0.0,0 STARLINK-3957,1 52562U 22051AF  23334.98419628  .00001037  00000-0  83258-4 0  9993,2 52562  53.2161 243.8117 0001508  96.2747 263.8417 15.08835822 86394,6917.893,95.438,540.801,538.715,0.0
52562.0,STARLINK-3957,PAYLOAD,2023-12-01 21:52:37,15.0884993,0.0001245,53.2155,239.65,81.9414,278.172,0.00022839,3.35e-05,0.0,0 STARLINK-3957,1 52562U 22051AF  23335.91155088  .00003350  00000-0  22839-3 0  9991,2 52562  53.2155 239.6500 0001245  81.9414 278.1720 15.08849930 86465,6917.85,95.437,540.576,538.854,0.0
52562.0,STARLINK-3957,PAYLOAD,2023-12-02 01:03:24,15.08835174,0.0001483,53.2159,239.0585,129.9509,230.1614,-0.00016362,-2.891e-05,0.0,0 STARLINK-3957,1 52562U 22051AF  23336.04403172 -.00002891  00000-0 -16362-3 0  9991,2 52562  53.2159 239.0585 0001483 129.9509 230.1614 15.08835174 86553,6917.895,95.438,540.786,538.734,0.0
52562.0,STARLINK-3957,PAYLOAD,2023-12-02 04:14:08,15.08898655,9.53e-05,53.2158,238.4632,94.644,265.4661,0.0011364,0.00017873,0.0,0 STARLINK-3957,1 52562U 22051AF  23336.17648703  .00017873  00000-0  11364-2 0  9996,2 52562  53.2158 238.4632 0000953  94.6440 265.4661 15.08898655 86579,6917.701,95.434,540.225,538.907,0.0
52562.0,STARLINK-3957,PAYLOAD,2023-12-02 21:43:25,15.0882295,0.0001279,53.2163,235.1932,110.7988,249.3141,-0.0003855,-6.415e-05,0.0,0 STARLINK-3957,1 52562U 22051AF  23336.90515731 -.00006415  00000-0 -38550-3 0  9990,2 52562  53.2163 235.1932 0001279 110.7988 249.3141 15.08822950 86615,6917.933,95.439,540.682,538.913,0.0
52562.0,STARLINK-3957,PAYLOAD,2023-12-03 02:29:34,15.08836929,0.0001247,53.2159,234.2995,110.1422,249.9704,-9.1712e-05,-1.747e-05,0.0,0 STARLINK-3957,1 52562U 22051AF  23337.10387173 -.00001747  00000-0 -91712-4 0  9993,2 52562  53.2159 234.2995 0001247 110.1422 249.9704 15.08836929 86714,6917.89,95.438,540.617,538.892,0.0
52562.0,STARLINK-3957,PAYLOAD,2023-12-03 04:04:57,15.08834445,0.0001166,53.2159,234.0008,146.4707,213.6359,-0.00015005,-2.675e-05,0.0,0 STARLINK-3957,1 52562U 22051AF  23337.17011057 -.00002675  00000-0 -15005-3 0  9996,2 52562  53.2159 234.0008 0001166 146.4707 213.6359 15.08834445 86653,6917.897,95.438,540.569,538.956,0.0
52562.0,STARLINK-3957,PAYLOAD,2023-12-04 02:20:22,15.08834018,0.0001471,53.216,229.8374,108.1895,251.9258,6.8326e-05,7.99e-06,0.0,0 STARLINK-3957,1 52562U 22051AF  23338.09748345  .00000799  00000-0  68326-4 0  9993,2 52562  53.2160 229.8374 0001471 108.1895 251.9258 15.08834018 86867,6917.899,95.438,540.781,538.746,0.0
52562.0,STARLINK-3957,PAYLOAD,2023-12-04 23:00:23,15.08845039,0.0001313,53.2156,225.975,112.606,247.5072,0.00039933,6.074e-05,0.0,0 STARLINK-3957,1 52562U 22051AF  23338.95860245  .00006074  00000-0  39933-3 0  9995,2 52562  53.2156 225.9750 0001313 112.6060 247.5072 15.08845039 86990,6917.865,95.437,540.638,538.822,0.0
